[Satellite]
VERSION=1.1
NAME=COSMOS 2123 & RS-12/13
NICKNAME=RS-12/13
TLE1=1 21089U 91007A   11059.56807850  .00000043  00000-0  29302-4 0  7177
TLE2=2 21089  82.9248 165.4778 0030453  40.4874 319.8539 13.74501047  6551
